[{"LONGITUDE":-87.675042,"LATITUDE":41.965334,"SALES VOLUME":624,"EMPLOYEE SIZE":3,"ZIPCODE":60640,"CITY":"CHICAGO"},{"LONGITUDE":-87.668774,"LATITUDE":41.976944,"SALES VOLUME":370,"EMPLOYEE SIZE":3,"ZIPCODE":60640,"CITY":"CHICAGO"},{"LONGITUDE":-87.654865,"LATITUDE":41.979075,"SALES VOLUME":624,"EMPLOYEE SIZE":3,"ZIPCODE":60640,"CITY":"CHICAGO"},{"LONGITUDE":-87.666917,"LATITUDE":41.977398,"SALES VOLUME":624,"EMPLOYEE SIZE":3,"ZIPCODE":60640,"CITY":"CHICAGO"},{"LONGITUDE":-87.662,"LATITUDE":41.9715,"SALES VOLUME":2080,"EMPLOYEE SIZE":10,"ZIPCODE":60640,"CITY":"CHICAGO"},{"LONGITUDE":-87.649492,"LATITUDE":41.966531,"SALES VOLUME":624,"EMPLOYEE SIZE":3,"ZIPCODE":60640,"CITY":"CHICAGO"},{"LONGITUDE":-87.648992,"LATITUDE":41.966263,"SALES VOLUME":624,"EMPLOYEE SIZE":3,"ZIPCODE":60640,"CITY":"CHICAGO"},{"LONGITUDE":-87.655136,"LATITUDE":41.968949,"SALES VOLUME":624,"EMPLOYEE SIZE":3,"ZIPCODE":60640,"CITY":"CHICAGO"},{"LONGITUDE":-87.668484,"LATITUDE":41.980149,"SALES VOLUME":617,"EMPLOYEE SIZE":5,"ZIPCODE":60640,"CITY":"CHICAGO"},{"LONGITUDE":-87.649492,"LATITUDE":41.966531,"SALES VOLUME":624,"EMPLOYEE SIZE":3,"ZIPCODE":60640,"CITY":"CHICAGO"},{"LONGITUDE":-87.649492,"LATITUDE":41.966531,"SALES VOLUME":624,"EMPLOYEE SIZE":3,"ZIPCODE":60640,"CITY":"CHICAGO"},{"LONGITUDE":-87.668774,"LATITUDE":41.976944,"SALES VOLUME":370,"EMPLOYEE SIZE":3,"ZIPCODE":60640,"CITY":"CHICAGO"},{"LONGITUDE":-87.655478,"LATITUDE":41.97866,"SALES VOLUME":624,"EMPLOYEE SIZE":3,"ZIPCODE":60640,"CITY":"CHICAGO"},{"LONGITUDE":-87.659581,"LATITUDE":41.970803,"SALES VOLUME":624,"EMPLOYEE SIZE":3,"ZIPCODE":60640,"CITY":"CHICAGO"},{"LONGITUDE":-87.649684,"LATITUDE":41.967744,"SALES VOLUME":624,"EMPLOYEE SIZE":3,"ZIPCODE":60640,"CITY":"CHICAGO"},{"LONGITUDE":-87.656172,"LATITUDE":41.963053,"SALES VOLUME":370,"EMPLOYEE SIZE":5,"ZIPCODE":60640,"CITY":"CHICAGO"},{"LONGITUDE":-87.675042,"LATITUDE":41.965334,"SALES VOLUME":624,"EMPLOYEE SIZE":3,"ZIPCODE":60640,"CITY":"CHICAGO"},{"LONGITUDE":-87.659094,"LATITUDE":41.978019,"SALES VOLUME":124,"EMPLOYEE SIZE":1,"ZIPCODE":60640,"CITY":"CHICAGO"},{"LONGITUDE":-87.675042,"LATITUDE":41.965334,"SALES VOLUME":624,"EMPLOYEE SIZE":3,"ZIPCODE":60640,"CITY":"CHICAGO"},{"LONGITUDE":-87.659581,"LATITUDE":41.970803,"SALES VOLUME":624,"EMPLOYEE SIZE":3,"ZIPCODE":60640,"CITY":"CHICAGO"},{"LONGITUDE":-87.649492,"LATITUDE":41.966531,"SALES VOLUME":624,"EMPLOYEE SIZE":3,"ZIPCODE":60640,"CITY":"CHICAGO"},{"LONGITUDE":-87.649492,"LATITUDE":41.966531,"SALES VOLUME":624,"EMPLOYEE SIZE":3,"ZIPCODE":60640,"CITY":"CHICAGO"},{"LONGITUDE":-87.649492,"LATITUDE":41.966531,"SALES VOLUME":370,"EMPLOYEE SIZE":3,"ZIPCODE":60640,"CITY":"CHICAGO"},{"LONGITUDE":-87.67533,"LATITUDE":41.97516,"SALES VOLUME":624,"EMPLOYEE SIZE":3,"ZIPCODE":60640,"CITY":"CHICAGO"},{"LONGITUDE":-87.668774,"LATITUDE":41.976944,"SALES VOLUME":617,"EMPLOYEE SIZE":5,"ZIPCODE":60640,"CITY":"CHICAGO"},{"LONGITUDE":-87.650402,"LATITUDE":41.970339,"SALES VOLUME":624,"EMPLOYEE SIZE":3,"ZIPCODE":60640,"CITY":"CHICAGO"},{"LONGITUDE":-87.649492,"LATITUDE":41.966531,"SALES VOLUME":624,"EMPLOYEE SIZE":3,"ZIPCODE":60640,"CITY":"CHICAGO"},{"LONGITUDE":-87.677158,"LATITUDE":41.964056,"SALES VOLUME":208,"EMPLOYEE SIZE":3,"ZIPCODE":60640,"CITY":"CHICAGO"},{"LONGITUDE":-87.659853,"LATITUDE":41.974044,"SALES VOLUME":624,"EMPLOYEE SIZE":3,"ZIPCODE":60640,"CITY":"CHICAGO"},{"LONGITUDE":-87.648992,"LATITUDE":41.966263,"SALES VOLUME":3119,"EMPLOYEE SIZE":15,"ZIPCODE":60640,"CITY":"CHICAGO"},{"LONGITUDE":-87.654865,"LATITUDE":41.979075,"SALES VOLUME":624,"EMPLOYEE SIZE":3,"ZIPCODE":60640,"CITY":"CHICAGO"},{"LONGITUDE":-87.654865,"LATITUDE":41.979075,"SALES VOLUME":624,"EMPLOYEE SIZE":3,"ZIPCODE":60640,"CITY":"CHICAGO"},{"LONGITUDE":-87.649492,"LATITUDE":41.966531,"SALES VOLUME":624,"EMPLOYEE SIZE":3,"ZIPCODE":60640,"CITY":"CHICAGO"},{"LONGITUDE":-87.649492,"LATITUDE":41.966531,"SALES VOLUME":624,"EMPLOYEE SIZE":3,"ZIPCODE":60640,"CITY":"CHICAGO"},{"LONGITUDE":-87.649492,"LATITUDE":41.966531,"SALES VOLUME":624,"EMPLOYEE SIZE":3,"ZIPCODE":60640,"CITY":"CHICAGO"},{"LONGITUDE":-87.678518,"LATITUDE":41.964842,"SALES VOLUME":624,"EMPLOYEE SIZE":3,"ZIPCODE":60640,"CITY":"CHICAGO"},{"LONGITUDE":-87.670939,"LATITUDE":41.972729,"SALES VOLUME":624,"EMPLOYEE SIZE":3,"ZIPCODE":60640,"CITY":"CHICAGO"},{"LONGITUDE":-87.660084,"LATITUDE":41.978176,"SALES VOLUME":624,"EMPLOYEE SIZE":3,"ZIPCODE":60640,"CITY":"CHICAGO"},{"LONGITUDE":-87.671136,"LATITUDE":41.972922,"SALES VOLUME":208,"EMPLOYEE SIZE":3,"ZIPCODE":60640,"CITY":"CHICAGO"},{"LONGITUDE":-87.649492,"LATITUDE":41.966531,"SALES VOLUME":624,"EMPLOYEE SIZE":3,"ZIPCODE":60640,"CITY":"CHICAGO"},{"LONGITUDE":-87.659531,"LATITUDE":41.970757,"SALES VOLUME":370,"EMPLOYEE SIZE":3,"ZIPCODE":60640,"CITY":"CHICAGO"},{"LONGITUDE":-87.655478,"LATITUDE":41.97866,"SALES VOLUME":624,"EMPLOYEE SIZE":3,"ZIPCODE":60640,"CITY":"CHICAGO"},{"LONGITUDE":-87.659558,"LATITUDE":41.981415,"SALES VOLUME":624,"EMPLOYEE SIZE":3,"ZIPCODE":60640,"CITY":"CHICAGO"},{"LONGITUDE":-87.649492,"LATITUDE":41.966531,"SALES VOLUME":624,"EMPLOYEE SIZE":3,"ZIPCODE":60640,"CITY":"CHICAGO"},{"LONGITUDE":-87.655313,"LATITUDE":41.968946,"SALES VOLUME":624,"EMPLOYEE SIZE":3,"ZIPCODE":60640,"CITY":"CHICAGO"},{"LONGITUDE":-87.660626,"LATITUDE":41.965054,"SALES VOLUME":740,"EMPLOYEE SIZE":6,"ZIPCODE":60640,"CITY":"CHICAGO"},{"LONGITUDE":-87.675042,"LATITUDE":41.965334,"SALES VOLUME":624,"EMPLOYEE SIZE":3,"ZIPCODE":60640,"CITY":"CHICAGO"},{"LONGITUDE":-87.649492,"LATITUDE":41.966531,"SALES VOLUME":624,"EMPLOYEE SIZE":3,"ZIPCODE":60640,"CITY":"CHICAGO"},{"LONGITUDE":-87.666611,"LATITUDE":41.966297,"SALES VOLUME":624,"EMPLOYEE SIZE":3,"ZIPCODE":60640,"CITY":"CHICAGO"},{"LONGITUDE":-87.675042,"LATITUDE":41.965334,"SALES VOLUME":624,"EMPLOYEE SIZE":3,"ZIPCODE":60640,"CITY":"CHICAGO"},{"LONGITUDE":-87.649492,"LATITUDE":41.966531,"SALES VOLUME":2080,"EMPLOYEE SIZE":10,"ZIPCODE":60640,"CITY":"CHICAGO"},{"LONGITUDE":-87.655767,"LATITUDE":41.963408,"SALES VOLUME":2496,"EMPLOYEE SIZE":12,"ZIPCODE":60640,"CITY":"CHICAGO"},{"LONGITUDE":-87.666611,"LATITUDE":41.966297,"SALES VOLUME":624,"EMPLOYEE SIZE":3,"ZIPCODE":60640,"CITY":"CHICAGO"},{"LONGITUDE":-87.648992,"LATITUDE":41.966263,"SALES VOLUME":624,"EMPLOYEE SIZE":3,"ZIPCODE":60640,"CITY":"CHICAGO"},{"LONGITUDE":-87.654865,"LATITUDE":41.979075,"SALES VOLUME":1248,"EMPLOYEE SIZE":6,"ZIPCODE":60640,"CITY":"CHICAGO"},{"LONGITUDE":-87.671136,"LATITUDE":41.972922,"SALES VOLUME":208,"EMPLOYEE SIZE":3,"ZIPCODE":60640,"CITY":"CHICAGO"},{"LONGITUDE":-87.648992,"LATITUDE":41.966263,"SALES VOLUME":832,"EMPLOYEE SIZE":4,"ZIPCODE":60640,"CITY":"CHICAGO"},{"LONGITUDE":-87.649492,"LATITUDE":41.966531,"SALES VOLUME":624,"EMPLOYEE SIZE":3,"ZIPCODE":60640,"CITY":"CHICAGO"},{"LONGITUDE":-87.675042,"LATITUDE":41.965334,"SALES VOLUME":624,"EMPLOYEE SIZE":3,"ZIPCODE":60640,"CITY":"CHICAGO"},{"LONGITUDE":-87.649492,"LATITUDE":41.966531,"SALES VOLUME":624,"EMPLOYEE SIZE":3,"ZIPCODE":60640,"CITY":"CHICAGO"},{"LONGITUDE":-87.649492,"LATITUDE":41.966531,"SALES VOLUME":624,"EMPLOYEE SIZE":3,"ZIPCODE":60640,"CITY":"CHICAGO"},{"LONGITUDE":-87.661427,"LATITUDE":41.965531,"SALES VOLUME":416,"EMPLOYEE SIZE":2,"ZIPCODE":60640,"CITY":"CHICAGO"},{"LONGITUDE":-87.649684,"LATITUDE":41.967744,"SALES VOLUME":624,"EMPLOYEE SIZE":3,"ZIPCODE":60640,"CITY":"CHICAGO"},{"LONGITUDE":-87.649492,"LATITUDE":41.966531,"SALES VOLUME":624,"EMPLOYEE SIZE":3,"ZIPCODE":60640,"CITY":"CHICAGO"},{"LONGITUDE":-87.666668,"LATITUDE":41.966567,"SALES VOLUME":624,"EMPLOYEE SIZE":3,"ZIPCODE":60640,"CITY":"CHICAGO"},{"LONGITUDE":-87.656025,"LATITUDE":41.968245,"SALES VOLUME":624,"EMPLOYEE SIZE":3,"ZIPCODE":60640,"CITY":"CHICAGO"},{"LONGITUDE":-87.648992,"LATITUDE":41.966263,"SALES VOLUME":624,"EMPLOYEE SIZE":3,"ZIPCODE":60640,"CITY":"CHICAGO"},{"LONGITUDE":-87.652217,"LATITUDE":41.965222,"SALES VOLUME":0,"EMPLOYEE SIZE":25,"ZIPCODE":60640,"CITY":"CHICAGO"},{"LONGITUDE":-87.656025,"LATITUDE":41.968245,"SALES VOLUME":624,"EMPLOYEE SIZE":3,"ZIPCODE":60640,"CITY":"CHICAGO"},{"LONGITUDE":-87.659558,"LATITUDE":41.981415,"SALES VOLUME":1248,"EMPLOYEE SIZE":6,"ZIPCODE":60640,"CITY":"CHICAGO"},{"LONGITUDE":-87.655136,"LATITUDE":41.968949,"SALES VOLUME":624,"EMPLOYEE SIZE":3,"ZIPCODE":60640,"CITY":"CHICAGO"},{"LONGITUDE":-87.671136,"LATITUDE":41.972922,"SALES VOLUME":832,"EMPLOYEE SIZE":4,"ZIPCODE":60640,"CITY":"CHICAGO"},{"LONGITUDE":-87.654865,"LATITUDE":41.979075,"SALES VOLUME":624,"EMPLOYEE SIZE":3,"ZIPCODE":60640,"CITY":"CHICAGO"},{"LONGITUDE":-87.671136,"LATITUDE":41.972922,"SALES VOLUME":208,"EMPLOYEE SIZE":3,"ZIPCODE":60640,"CITY":"CHICAGO"},{"LONGITUDE":-87.675042,"LATITUDE":41.965334,"SALES VOLUME":624,"EMPLOYEE SIZE":3,"ZIPCODE":60640,"CITY":"CHICAGO"},{"LONGITUDE":-87.649492,"LATITUDE":41.966531,"SALES VOLUME":624,"EMPLOYEE SIZE":3,"ZIPCODE":60640,"CITY":"CHICAGO"},{"LONGITUDE":-87.649492,"LATITUDE":41.966531,"SALES VOLUME":624,"EMPLOYEE SIZE":3,"ZIPCODE":60640,"CITY":"CHICAGO"},{"LONGITUDE":-87.649492,"LATITUDE":41.966531,"SALES VOLUME":624,"EMPLOYEE SIZE":3,"ZIPCODE":60640,"CITY":"CHICAGO"},{"LONGITUDE":-87.675042,"LATITUDE":41.965334,"SALES VOLUME":624,"EMPLOYEE SIZE":3,"ZIPCODE":60640,"CITY":"CHICAGO"},{"LONGITUDE":-87.668774,"LATITUDE":41.976944,"SALES VOLUME":370,"EMPLOYEE SIZE":3,"ZIPCODE":60640,"CITY":"CHICAGO"},{"LONGITUDE":-87.649492,"LATITUDE":41.966531,"SALES VOLUME":624,"EMPLOYEE SIZE":3,"ZIPCODE":60640,"CITY":"CHICAGO"},{"LONGITUDE":-87.661427,"LATITUDE":41.965531,"SALES VOLUME":624,"EMPLOYEE SIZE":3,"ZIPCODE":60640,"CITY":"CHICAGO"},{"LONGITUDE":-87.649492,"LATITUDE":41.966531,"SALES VOLUME":624,"EMPLOYEE SIZE":3,"ZIPCODE":60640,"CITY":"CHICAGO"},{"LONGITUDE":-87.659242,"LATITUDE":41.975631,"SALES VOLUME":208,"EMPLOYEE SIZE":4,"ZIPCODE":60640,"CITY":"CHICAGO"},{"LONGITUDE":-87.675042,"LATITUDE":41.965334,"SALES VOLUME":624,"EMPLOYEE SIZE":3,"ZIPCODE":60640,"CITY":"CHICAGO"},{"LONGITUDE":-87.649492,"LATITUDE":41.966531,"SALES VOLUME":624,"EMPLOYEE SIZE":3,"ZIPCODE":60640,"CITY":"CHICAGO"},{"LONGITUDE":-87.649492,"LATITUDE":41.966531,"SALES VOLUME":624,"EMPLOYEE SIZE":3,"ZIPCODE":60640,"CITY":"CHICAGO"},{"LONGITUDE":-87.649492,"LATITUDE":41.966531,"SALES VOLUME":624,"EMPLOYEE SIZE":3,"ZIPCODE":60640,"CITY":"CHICAGO"},{"LONGITUDE":-87.655313,"LATITUDE":41.968946,"SALES VOLUME":208,"EMPLOYEE SIZE":3,"ZIPCODE":60640,"CITY":"CHICAGO"},{"LONGITUDE":-87.662,"LATITUDE":41.9715,"SALES VOLUME":370,"EMPLOYEE SIZE":3,"ZIPCODE":60640,"CITY":"CHICAGO"},{"LONGITUDE":-87.649492,"LATITUDE":41.966531,"SALES VOLUME":832,"EMPLOYEE SIZE":4,"ZIPCODE":60640,"CITY":"CHICAGO"},{"LONGITUDE":-87.655313,"LATITUDE":41.968946,"SALES VOLUME":624,"EMPLOYEE SIZE":3,"ZIPCODE":60640,"CITY":"CHICAGO"},{"LONGITUDE":-87.678518,"LATITUDE":41.964842,"SALES VOLUME":624,"EMPLOYEE SIZE":3,"ZIPCODE":60640,"CITY":"CHICAGO"},{"LONGITUDE":-87.649492,"LATITUDE":41.966531,"SALES VOLUME":624,"EMPLOYEE SIZE":3,"ZIPCODE":60640,"CITY":"CHICAGO"},{"LONGITUDE":-87.649492,"LATITUDE":41.966531,"SALES VOLUME":624,"EMPLOYEE SIZE":3,"ZIPCODE":60640,"CITY":"CHICAGO"},{"LONGITUDE":-87.649492,"LATITUDE":41.966531,"SALES VOLUME":624,"EMPLOYEE SIZE":3,"ZIPCODE":60640,"CITY":"CHICAGO"},{"LONGITUDE":-87.660282,"LATITUDE":41.977048,"SALES VOLUME":624,"EMPLOYEE SIZE":3,"ZIPCODE":60640,"CITY":"CHICAGO"},{"LONGITUDE":-87.677158,"LATITUDE":41.964056,"SALES VOLUME":624,"EMPLOYEE SIZE":3,"ZIPCODE":60640,"CITY":"CHICAGO"},{"LONGITUDE":-87.649492,"LATITUDE":41.966531,"SALES VOLUME":624,"EMPLOYEE SIZE":3,"ZIPCODE":60640,"CITY":"CHICAGO"},{"LONGITUDE":-87.649492,"LATITUDE":41.966531,"SALES VOLUME":208,"EMPLOYEE SIZE":3,"ZIPCODE":60640,"CITY":"CHICAGO"},{"LONGITUDE":-87.655478,"LATITUDE":41.97866,"SALES VOLUME":208,"EMPLOYEE SIZE":3,"ZIPCODE":60640,"CITY":"CHICAGO"},{"LONGITUDE":-87.671136,"LATITUDE":41.972922,"SALES VOLUME":208,"EMPLOYEE SIZE":3,"ZIPCODE":60640,"CITY":"CHICAGO"},{"LONGITUDE":-87.649492,"LATITUDE":41.966531,"SALES VOLUME":624,"EMPLOYEE SIZE":3,"ZIPCODE":60640,"CITY":"CHICAGO"},{"LONGITUDE":-87.649684,"LATITUDE":41.967744,"SALES VOLUME":624,"EMPLOYEE SIZE":3,"ZIPCODE":60640,"CITY":"CHICAGO"},{"LONGITUDE":-87.660084,"LATITUDE":41.978176,"SALES VOLUME":624,"EMPLOYEE SIZE":3,"ZIPCODE":60640,"CITY":"CHICAGO"},{"LONGITUDE":-87.649492,"LATITUDE":41.966531,"SALES VOLUME":624,"EMPLOYEE SIZE":3,"ZIPCODE":60640,"CITY":"CHICAGO"},{"LONGITUDE":-87.649492,"LATITUDE":41.966531,"SALES VOLUME":624,"EMPLOYEE SIZE":3,"ZIPCODE":60640,"CITY":"CHICAGO"},{"LONGITUDE":-87.651027,"LATITUDE":41.962995,"SALES VOLUME":624,"EMPLOYEE SIZE":3,"ZIPCODE":60640,"CITY":"CHICAGO"},{"LONGITUDE":-87.649492,"LATITUDE":41.966531,"SALES VOLUME":624,"EMPLOYEE SIZE":3,"ZIPCODE":60640,"CITY":"CHICAGO"},{"LONGITUDE":-87.671136,"LATITUDE":41.972922,"SALES VOLUME":624,"EMPLOYEE SIZE":3,"ZIPCODE":60640,"CITY":"CHICAGO"},{"LONGITUDE":-87.675042,"LATITUDE":41.965334,"SALES VOLUME":624,"EMPLOYEE SIZE":3,"ZIPCODE":60640,"CITY":"CHICAGO"},{"LONGITUDE":-87.675042,"LATITUDE":41.965334,"SALES VOLUME":624,"EMPLOYEE SIZE":3,"ZIPCODE":60640,"CITY":"CHICAGO"},{"LONGITUDE":-87.660325,"LATITUDE":41.977769,"SALES VOLUME":624,"EMPLOYEE SIZE":3,"ZIPCODE":60640,"CITY":"CHICAGO"},{"LONGITUDE":-87.671136,"LATITUDE":41.972922,"SALES VOLUME":624,"EMPLOYEE SIZE":3,"ZIPCODE":60640,"CITY":"CHICAGO"},{"LONGITUDE":-87.649492,"LATITUDE":41.966531,"SALES VOLUME":624,"EMPLOYEE SIZE":3,"ZIPCODE":60640,"CITY":"CHICAGO"},{"LONGITUDE":-87.649492,"LATITUDE":41.966531,"SALES VOLUME":624,"EMPLOYEE SIZE":3,"ZIPCODE":60640,"CITY":"CHICAGO"},{"LONGITUDE":-87.670939,"LATITUDE":41.972729,"SALES VOLUME":2080,"EMPLOYEE SIZE":8,"ZIPCODE":60640,"CITY":"CHICAGO"},{"LONGITUDE":-87.649492,"LATITUDE":41.966531,"SALES VOLUME":624,"EMPLOYEE SIZE":3,"ZIPCODE":60640,"CITY":"CHICAGO"},{"LONGITUDE":-87.649492,"LATITUDE":41.966531,"SALES VOLUME":624,"EMPLOYEE SIZE":3,"ZIPCODE":60640,"CITY":"CHICAGO"},{"LONGITUDE":-87.659869,"LATITUDE":41.969678,"SALES VOLUME":624,"EMPLOYEE SIZE":3,"ZIPCODE":60640,"CITY":"CHICAGO"},{"LONGITUDE":-87.649492,"LATITUDE":41.966531,"SALES VOLUME":624,"EMPLOYEE SIZE":3,"ZIPCODE":60640,"CITY":"CHICAGO"},{"LONGITUDE":-87.649492,"LATITUDE":41.966531,"SALES VOLUME":208,"EMPLOYEE SIZE":3,"ZIPCODE":60640,"CITY":"CHICAGO"},{"LONGITUDE":-87.673974,"LATITUDE":41.97295,"SALES VOLUME":624,"EMPLOYEE SIZE":3,"ZIPCODE":60640,"CITY":"CHICAGO"},{"LONGITUDE":-87.649492,"LATITUDE":41.966531,"SALES VOLUME":624,"EMPLOYEE SIZE":3,"ZIPCODE":60640,"CITY":"CHICAGO"},{"LONGITUDE":-87.649492,"LATITUDE":41.966531,"SALES VOLUME":624,"EMPLOYEE SIZE":3,"ZIPCODE":60640,"CITY":"CHICAGO"},{"LONGITUDE":-87.649492,"LATITUDE":41.966531,"SALES VOLUME":624,"EMPLOYEE SIZE":3,"ZIPCODE":60640,"CITY":"CHICAGO"},{"LONGITUDE":-87.652217,"LATITUDE":41.965222,"SALES VOLUME":624,"EMPLOYEE SIZE":3,"ZIPCODE":60640,"CITY":"CHICAGO"},{"LONGITUDE":-87.649492,"LATITUDE":41.966531,"SALES VOLUME":624,"EMPLOYEE SIZE":3,"ZIPCODE":60640,"CITY":"CHICAGO"},{"LONGITUDE":-87.669246,"LATITUDE":41.975829,"SALES VOLUME":624,"EMPLOYEE SIZE":3,"ZIPCODE":60640,"CITY":"CHICAGO"},{"LONGITUDE":-87.649492,"LATITUDE":41.966531,"SALES VOLUME":624,"EMPLOYEE SIZE":3,"ZIPCODE":60640,"CITY":"CHICAGO"},{"LONGITUDE":-87.649492,"LATITUDE":41.966531,"SALES VOLUME":624,"EMPLOYEE SIZE":3,"ZIPCODE":60640,"CITY":"CHICAGO"},{"LONGITUDE":-87.654865,"LATITUDE":41.979075,"SALES VOLUME":624,"EMPLOYEE SIZE":3,"ZIPCODE":60640,"CITY":"CHICAGO"},{"LONGITUDE":-87.649492,"LATITUDE":41.966531,"SALES VOLUME":624,"EMPLOYEE SIZE":3,"ZIPCODE":60640,"CITY":"CHICAGO"},{"LONGITUDE":-87.649492,"LATITUDE":41.966531,"SALES VOLUME":624,"EMPLOYEE SIZE":3,"ZIPCODE":60640,"CITY":"CHICAGO"},{"LONGITUDE":-87.649492,"LATITUDE":41.966531,"SALES VOLUME":624,"EMPLOYEE SIZE":3,"ZIPCODE":60640,"CITY":"CHICAGO"},{"LONGITUDE":-87.659656,"LATITUDE":41.981654,"SALES VOLUME":624,"EMPLOYEE SIZE":3,"ZIPCODE":60640,"CITY":"CHICAGO"},{"LONGITUDE":-87.654567,"LATITUDE":41.983221,"SALES VOLUME":624,"EMPLOYEE SIZE":3,"ZIPCODE":60640,"CITY":"CHICAGO"},{"LONGITUDE":-87.649492,"LATITUDE":41.966531,"SALES VOLUME":624,"EMPLOYEE SIZE":3,"ZIPCODE":60640,"CITY":"CHICAGO"},{"LONGITUDE":-87.649492,"LATITUDE":41.966531,"SALES VOLUME":624,"EMPLOYEE SIZE":3,"ZIPCODE":60640,"CITY":"CHICAGO"},{"LONGITUDE":-87.649492,"LATITUDE":41.966531,"SALES VOLUME":624,"EMPLOYEE SIZE":3,"ZIPCODE":60640,"CITY":"CHICAGO"},{"LONGITUDE":-87.648992,"LATITUDE":41.966263,"SALES VOLUME":624,"EMPLOYEE SIZE":3,"ZIPCODE":60640,"CITY":"CHICAGO"},{"LONGITUDE":-87.659192,"LATITUDE":41.968797,"SALES VOLUME":624,"EMPLOYEE SIZE":3,"ZIPCODE":60640,"CITY":"CHICAGO"},{"LONGITUDE":-87.649492,"LATITUDE":41.966531,"SALES VOLUME":624,"EMPLOYEE SIZE":3,"ZIPCODE":60640,"CITY":"CHICAGO"},{"LONGITUDE":-87.649492,"LATITUDE":41.966531,"SALES VOLUME":624,"EMPLOYEE SIZE":3,"ZIPCODE":60640,"CITY":"CHICAGO"},{"LONGITUDE":-87.649492,"LATITUDE":41.966531,"SALES VOLUME":624,"EMPLOYEE SIZE":3,"ZIPCODE":60640,"CITY":"CHICAGO"},{"LONGITUDE":-87.649492,"LATITUDE":41.966531,"SALES VOLUME":624,"EMPLOYEE SIZE":3,"ZIPCODE":60640,"CITY":"CHICAGO"},{"LONGITUDE":-87.668774,"LATITUDE":41.976944,"SALES VOLUME":370,"EMPLOYEE SIZE":3,"ZIPCODE":60640,"CITY":"CHICAGO"},{"LONGITUDE":-87.649492,"LATITUDE":41.966531,"SALES VOLUME":624,"EMPLOYEE SIZE":3,"ZIPCODE":60640,"CITY":"CHICAGO"},{"LONGITUDE":-87.675042,"LATITUDE":41.965334,"SALES VOLUME":624,"EMPLOYEE SIZE":3,"ZIPCODE":60640,"CITY":"CHICAGO"},{"LONGITUDE":-87.649492,"LATITUDE":41.966531,"SALES VOLUME":624,"EMPLOYEE SIZE":3,"ZIPCODE":60640,"CITY":"CHICAGO"},{"LONGITUDE":-87.673603,"LATITUDE":41.964191,"SALES VOLUME":624,"EMPLOYEE SIZE":3,"ZIPCODE":60640,"CITY":"CHICAGO"},{"LONGITUDE":-87.649492,"LATITUDE":41.966531,"SALES VOLUME":624,"EMPLOYEE SIZE":3,"ZIPCODE":60640,"CITY":"CHICAGO"},{"LONGITUDE":-87.649492,"LATITUDE":41.966531,"SALES VOLUME":624,"EMPLOYEE SIZE":3,"ZIPCODE":60640,"CITY":"CHICAGO"},{"LONGITUDE":-87.649492,"LATITUDE":41.966531,"SALES VOLUME":624,"EMPLOYEE SIZE":3,"ZIPCODE":60640,"CITY":"CHICAGO"},{"LONGITUDE":-87.649684,"LATITUDE":41.967744,"SALES VOLUME":624,"EMPLOYEE SIZE":3,"ZIPCODE":60640,"CITY":"CHICAGO"},{"LONGITUDE":-87.649492,"LATITUDE":41.966531,"SALES VOLUME":624,"EMPLOYEE SIZE":3,"ZIPCODE":60640,"CITY":"CHICAGO"},{"LONGITUDE":-87.649492,"LATITUDE":41.966531,"SALES VOLUME":624,"EMPLOYEE SIZE":3,"ZIPCODE":60640,"CITY":"CHICAGO"},{"LONGITUDE":-87.649492,"LATITUDE":41.966531,"SALES VOLUME":624,"EMPLOYEE SIZE":3,"ZIPCODE":60640,"CITY":"CHICAGO"},{"LONGITUDE":-87.648992,"LATITUDE":41.966263,"SALES VOLUME":624,"EMPLOYEE SIZE":3,"ZIPCODE":60640,"CITY":"CHICAGO"},{"LONGITUDE":-87.649492,"LATITUDE":41.966531,"SALES VOLUME":624,"EMPLOYEE SIZE":3,"ZIPCODE":60640,"CITY":"CHICAGO"},{"LONGITUDE":-87.669246,"LATITUDE":41.975829,"SALES VOLUME":624,"EMPLOYEE SIZE":3,"ZIPCODE":60640,"CITY":"CHICAGO"},{"LONGITUDE":-87.649684,"LATITUDE":41.967744,"SALES VOLUME":624,"EMPLOYEE SIZE":3,"ZIPCODE":60640,"CITY":"CHICAGO"},{"LONGITUDE":-87.675042,"LATITUDE":41.965334,"SALES VOLUME":624,"EMPLOYEE SIZE":3,"ZIPCODE":60640,"CITY":"CHICAGO"},{"LONGITUDE":-87.649492,"LATITUDE":41.966531,"SALES VOLUME":624,"EMPLOYEE SIZE":3,"ZIPCODE":60640,"CITY":"CHICAGO"},{"LONGITUDE":-87.675042,"LATITUDE":41.965334,"SALES VOLUME":624,"EMPLOYEE SIZE":3,"ZIPCODE":60640,"CITY":"CHICAGO"},{"LONGITUDE":-87.675042,"LATITUDE":41.965334,"SALES VOLUME":624,"EMPLOYEE SIZE":3,"ZIPCODE":60640,"CITY":"CHICAGO"},{"LONGITUDE":-87.675042,"LATITUDE":41.965334,"SALES VOLUME":624,"EMPLOYEE SIZE":3,"ZIPCODE":60640,"CITY":"CHICAGO"},{"LONGITUDE":-87.675042,"LATITUDE":41.965334,"SALES VOLUME":624,"EMPLOYEE SIZE":3,"ZIPCODE":60640,"CITY":"CHICAGO"},{"LONGITUDE":-87.675042,"LATITUDE":41.965334,"SALES VOLUME":624,"EMPLOYEE SIZE":3,"ZIPCODE":60640,"CITY":"CHICAGO"},{"LONGITUDE":-87.675042,"LATITUDE":41.965334,"SALES VOLUME":624,"EMPLOYEE SIZE":3,"ZIPCODE":60640,"CITY":"CHICAGO"},{"LONGITUDE":-87.675042,"LATITUDE":41.965334,"SALES VOLUME":624,"EMPLOYEE SIZE":3,"ZIPCODE":60640,"CITY":"CHICAGO"},{"LONGITUDE":-87.649492,"LATITUDE":41.966531,"SALES VOLUME":208,"EMPLOYEE SIZE":3,"ZIPCODE":60640,"CITY":"CHICAGO"},{"LONGITUDE":-87.675042,"LATITUDE":41.965334,"SALES VOLUME":624,"EMPLOYEE SIZE":3,"ZIPCODE":60640,"CITY":"CHICAGO"},{"LONGITUDE":-87.649492,"LATITUDE":41.966531,"SALES VOLUME":624,"EMPLOYEE SIZE":3,"ZIPCODE":60640,"CITY":"CHICAGO"},{"LONGITUDE":-87.675042,"LATITUDE":41.965334,"SALES VOLUME":624,"EMPLOYEE SIZE":3,"ZIPCODE":60640,"CITY":"CHICAGO"},{"LONGITUDE":-87.649492,"LATITUDE":41.966531,"SALES VOLUME":624,"EMPLOYEE SIZE":3,"ZIPCODE":60640,"CITY":"CHICAGO"},{"LONGITUDE":-87.662,"LATITUDE":41.9715,"SALES VOLUME":624,"EMPLOYEE SIZE":3,"ZIPCODE":60640,"CITY":"CHICAGO"},{"LONGITUDE":-87.649492,"LATITUDE":41.966531,"SALES VOLUME":624,"EMPLOYEE SIZE":3,"ZIPCODE":60640,"CITY":"CHICAGO"},{"LONGITUDE":-87.649684,"LATITUDE":41.967744,"SALES VOLUME":624,"EMPLOYEE SIZE":3,"ZIPCODE":60640,"CITY":"CHICAGO"},{"LONGITUDE":-87.649492,"LATITUDE":41.966531,"SALES VOLUME":624,"EMPLOYEE SIZE":3,"ZIPCODE":60640,"CITY":"CHICAGO"},{"LONGITUDE":-87.660087,"LATITUDE":41.978249,"SALES VOLUME":624,"EMPLOYEE SIZE":3,"ZIPCODE":60640,"CITY":"CHICAGO"},{"LONGITUDE":-87.649492,"LATITUDE":41.966531,"SALES VOLUME":624,"EMPLOYEE SIZE":3,"ZIPCODE":60640,"CITY":"CHICAGO"},{"LONGITUDE":-87.675042,"LATITUDE":41.965334,"SALES VOLUME":624,"EMPLOYEE SIZE":3,"ZIPCODE":60640,"CITY":"CHICAGO"},{"LONGITUDE":-87.655313,"LATITUDE":41.968946,"SALES VOLUME":624,"EMPLOYEE SIZE":3,"ZIPCODE":60640,"CITY":"CHICAGO"},{"LONGITUDE":-87.649684,"LATITUDE":41.967744,"SALES VOLUME":624,"EMPLOYEE SIZE":3,"ZIPCODE":60640,"CITY":"CHICAGO"},{"LONGITUDE":-87.667737,"LATITUDE":41.968309,"SALES VOLUME":624,"EMPLOYEE SIZE":3,"ZIPCODE":60640,"CITY":"CHICAGO"},{"LONGITUDE":-87.659656,"LATITUDE":41.981654,"SALES VOLUME":1040,"EMPLOYEE SIZE":5,"ZIPCODE":60640,"CITY":"CHICAGO"},{"LONGITUDE":-87.649492,"LATITUDE":41.966531,"SALES VOLUME":624,"EMPLOYEE SIZE":3,"ZIPCODE":60640,"CITY":"CHICAGO"},{"LONGITUDE":-87.673943,"LATITUDE":41.967294,"SALES VOLUME":624,"EMPLOYEE SIZE":3,"ZIPCODE":60640,"CITY":"CHICAGO"},{"LONGITUDE":-87.649492,"LATITUDE":41.966531,"SALES VOLUME":624,"EMPLOYEE SIZE":3,"ZIPCODE":60640,"CITY":"CHICAGO"},{"LONGITUDE":-87.659192,"LATITUDE":41.968797,"SALES VOLUME":624,"EMPLOYEE SIZE":3,"ZIPCODE":60640,"CITY":"CHICAGO"},{"LONGITUDE":-87.673603,"LATITUDE":41.964191,"SALES VOLUME":624,"EMPLOYEE SIZE":3,"ZIPCODE":60640,"CITY":"CHICAGO"},{"LONGITUDE":-87.675042,"LATITUDE":41.965334,"SALES VOLUME":624,"EMPLOYEE SIZE":3,"ZIPCODE":60640,"CITY":"CHICAGO"},{"LONGITUDE":-87.675042,"LATITUDE":41.965334,"SALES VOLUME":624,"EMPLOYEE SIZE":3,"ZIPCODE":60640,"CITY":"CHICAGO"},{"LONGITUDE":-87.649492,"LATITUDE":41.966531,"SALES VOLUME":624,"EMPLOYEE SIZE":3,"ZIPCODE":60640,"CITY":"CHICAGO"},{"LONGITUDE":-87.649492,"LATITUDE":41.966531,"SALES VOLUME":624,"EMPLOYEE SIZE":3,"ZIPCODE":60640,"CITY":"CHICAGO"},{"LONGITUDE":-87.675042,"LATITUDE":41.965334,"SALES VOLUME":624,"EMPLOYEE SIZE":3,"ZIPCODE":60640,"CITY":"CHICAGO"},{"LONGITUDE":-87.649492,"LATITUDE":41.966531,"SALES VOLUME":1248,"EMPLOYEE SIZE":6,"ZIPCODE":60640,"CITY":"CHICAGO"},{"LONGITUDE":-87.649492,"LATITUDE":41.966531,"SALES VOLUME":624,"EMPLOYEE SIZE":3,"ZIPCODE":60640,"CITY":"CHICAGO"},{"LONGITUDE":-87.673603,"LATITUDE":41.964191,"SALES VOLUME":624,"EMPLOYEE SIZE":3,"ZIPCODE":60640,"CITY":"CHICAGO"},{"LONGITUDE":-87.649492,"LATITUDE":41.966531,"SALES VOLUME":624,"EMPLOYEE SIZE":3,"ZIPCODE":60640,"CITY":"CHICAGO"},{"LONGITUDE":-87.649492,"LATITUDE":41.966531,"SALES VOLUME":624,"EMPLOYEE SIZE":3,"ZIPCODE":60640,"CITY":"CHICAGO"},{"LONGITUDE":-87.649492,"LATITUDE":41.966531,"SALES VOLUME":624,"EMPLOYEE SIZE":3,"ZIPCODE":60640,"CITY":"CHICAGO"},{"LONGITUDE":-87.675042,"LATITUDE":41.965334,"SALES VOLUME":624,"EMPLOYEE SIZE":3,"ZIPCODE":60640,"CITY":"CHICAGO"},{"LONGITUDE":-87.675042,"LATITUDE":41.965334,"SALES VOLUME":624,"EMPLOYEE SIZE":3,"ZIPCODE":60640,"CITY":"CHICAGO"},{"LONGITUDE":-87.659192,"LATITUDE":41.968797,"SALES VOLUME":624,"EMPLOYEE SIZE":3,"ZIPCODE":60640,"CITY":"CHICAGO"},{"LONGITUDE":-87.671136,"LATITUDE":41.972922,"SALES VOLUME":624,"EMPLOYEE SIZE":3,"ZIPCODE":60640,"CITY":"CHICAGO"},{"LONGITUDE":-87.655844,"LATITUDE":41.968857,"SALES VOLUME":624,"EMPLOYEE SIZE":3,"ZIPCODE":60640,"CITY":"CHICAGO"},{"LONGITUDE":-87.654865,"LATITUDE":41.979075,"SALES VOLUME":1248,"EMPLOYEE SIZE":6,"ZIPCODE":60640,"CITY":"CHICAGO"},{"LONGITUDE":-87.659675,"LATITUDE":41.981137,"SALES VOLUME":1040,"EMPLOYEE SIZE":5,"ZIPCODE":60640,"CITY":"CHICAGO"},{"LONGITUDE":-87.649492,"LATITUDE":41.966531,"SALES VOLUME":624,"EMPLOYEE SIZE":3,"ZIPCODE":60640,"CITY":"CHICAGO"},{"LONGITUDE":-87.675042,"LATITUDE":41.965334,"SALES VOLUME":624,"EMPLOYEE SIZE":3,"ZIPCODE":60640,"CITY":"CHICAGO"},{"LONGITUDE":-87.675042,"LATITUDE":41.965334,"SALES VOLUME":624,"EMPLOYEE SIZE":3,"ZIPCODE":60640,"CITY":"CHICAGO"},{"LONGITUDE":-87.675042,"LATITUDE":41.965334,"SALES VOLUME":624,"EMPLOYEE SIZE":3,"ZIPCODE":60640,"CITY":"CHICAGO"},{"LONGITUDE":-87.675042,"LATITUDE":41.965334,"SALES VOLUME":624,"EMPLOYEE SIZE":3,"ZIPCODE":60640,"CITY":"CHICAGO"},{"LONGITUDE":-87.649492,"LATITUDE":41.966531,"SALES VOLUME":624,"EMPLOYEE SIZE":3,"ZIPCODE":60640,"CITY":"CHICAGO"},{"LONGITUDE":-87.649492,"LATITUDE":41.966531,"SALES VOLUME":624,"EMPLOYEE SIZE":3,"ZIPCODE":60640,"CITY":"CHICAGO"},{"LONGITUDE":-87.675042,"LATITUDE":41.965334,"SALES VOLUME":624,"EMPLOYEE SIZE":3,"ZIPCODE":60640,"CITY":"CHICAGO"},{"LONGITUDE":-87.662,"LATITUDE":41.9715,"SALES VOLUME":624,"EMPLOYEE SIZE":3,"ZIPCODE":60640,"CITY":"CHICAGO"},{"LONGITUDE":-87.649492,"LATITUDE":41.966531,"SALES VOLUME":624,"EMPLOYEE SIZE":3,"ZIPCODE":60640,"CITY":"CHICAGO"},{"LONGITUDE":-87.673603,"LATITUDE":41.964191,"SALES VOLUME":624,"EMPLOYEE SIZE":3,"ZIPCODE":60640,"CITY":"CHICAGO"},{"LONGITUDE":-87.670939,"LATITUDE":41.972729,"SALES VOLUME":1664,"EMPLOYEE SIZE":8,"ZIPCODE":60640,"CITY":"CHICAGO"},{"LONGITUDE":-87.675042,"LATITUDE":41.965334,"SALES VOLUME":624,"EMPLOYEE SIZE":3,"ZIPCODE":60640,"CITY":"CHICAGO"},{"LONGITUDE":-87.649492,"LATITUDE":41.966531,"SALES VOLUME":624,"EMPLOYEE SIZE":3,"ZIPCODE":60640,"CITY":"CHICAGO"},{"LONGITUDE":-87.675042,"LATITUDE":41.965334,"SALES VOLUME":624,"EMPLOYEE SIZE":3,"ZIPCODE":60640,"CITY":"CHICAGO"},{"LONGITUDE":-87.678518,"LATITUDE":41.964842,"SALES VOLUME":1040,"EMPLOYEE SIZE":5,"ZIPCODE":60640,"CITY":"CHICAGO"},{"LONGITUDE":-87.649492,"LATITUDE":41.966531,"SALES VOLUME":624,"EMPLOYEE SIZE":3,"ZIPCODE":60640,"CITY":"CHICAGO"},{"LONGITUDE":-87.675042,"LATITUDE":41.965334,"SALES VOLUME":624,"EMPLOYEE SIZE":3,"ZIPCODE":60640,"CITY":"CHICAGO"},{"LONGITUDE":-87.649492,"LATITUDE":41.966531,"SALES VOLUME":832,"EMPLOYEE SIZE":4,"ZIPCODE":60640,"CITY":"CHICAGO"},{"LONGITUDE":-87.649492,"LATITUDE":41.966531,"SALES VOLUME":624,"EMPLOYEE SIZE":3,"ZIPCODE":60640,"CITY":"CHICAGO"},{"LONGITUDE":-87.649684,"LATITUDE":41.967744,"SALES VOLUME":624,"EMPLOYEE SIZE":3,"ZIPCODE":60640,"CITY":"CHICAGO"},{"LONGITUDE":-87.668084,"LATITUDE":41.969869,"SALES VOLUME":624,"EMPLOYEE SIZE":3,"ZIPCODE":60640,"CITY":"CHICAGO"},{"LONGITUDE":-87.678518,"LATITUDE":41.964842,"SALES VOLUME":1456,"EMPLOYEE SIZE":7,"ZIPCODE":60640,"CITY":"CHICAGO"},{"LONGITUDE":-87.649492,"LATITUDE":41.966531,"SALES VOLUME":624,"EMPLOYEE SIZE":3,"ZIPCODE":60640,"CITY":"CHICAGO"},{"LONGITUDE":-87.675042,"LATITUDE":41.965334,"SALES VOLUME":624,"EMPLOYEE SIZE":3,"ZIPCODE":60640,"CITY":"CHICAGO"},{"LONGITUDE":-87.673603,"LATITUDE":41.964191,"SALES VOLUME":624,"EMPLOYEE SIZE":3,"ZIPCODE":60640,"CITY":"CHICAGO"},{"LONGITUDE":-87.649492,"LATITUDE":41.966531,"SALES VOLUME":624,"EMPLOYEE SIZE":3,"ZIPCODE":60640,"CITY":"CHICAGO"},{"LONGITUDE":-87.659192,"LATITUDE":41.968797,"SALES VOLUME":624,"EMPLOYEE SIZE":3,"ZIPCODE":60640,"CITY":"CHICAGO"},{"LONGITUDE":-87.675042,"LATITUDE":41.965334,"SALES VOLUME":624,"EMPLOYEE SIZE":3,"ZIPCODE":60640,"CITY":"CHICAGO"},{"LONGITUDE":-87.649492,"LATITUDE":41.966531,"SALES VOLUME":624,"EMPLOYEE SIZE":3,"ZIPCODE":60640,"CITY":"CHICAGO"},{"LONGITUDE":-87.649684,"LATITUDE":41.967744,"SALES VOLUME":624,"EMPLOYEE SIZE":3,"ZIPCODE":60640,"CITY":"CHICAGO"},{"LONGITUDE":-87.652217,"LATITUDE":41.965222,"SALES VOLUME":624,"EMPLOYEE SIZE":3,"ZIPCODE":60640,"CITY":"CHICAGO"},{"LONGITUDE":-87.649492,"LATITUDE":41.966531,"SALES VOLUME":624,"EMPLOYEE SIZE":3,"ZIPCODE":60640,"CITY":"CHICAGO"},{"LONGITUDE":-87.649492,"LATITUDE":41.966531,"SALES VOLUME":624,"EMPLOYEE SIZE":3,"ZIPCODE":60640,"CITY":"CHICAGO"},{"LONGITUDE":-87.649492,"LATITUDE":41.966531,"SALES VOLUME":624,"EMPLOYEE SIZE":3,"ZIPCODE":60640,"CITY":"CHICAGO"},{"LONGITUDE":-87.649492,"LATITUDE":41.966531,"SALES VOLUME":624,"EMPLOYEE SIZE":3,"ZIPCODE":60640,"CITY":"CHICAGO"},{"LONGITUDE":-87.649492,"LATITUDE":41.966531,"SALES VOLUME":624,"EMPLOYEE SIZE":3,"ZIPCODE":60640,"CITY":"CHICAGO"},{"LONGITUDE":-87.675042,"LATITUDE":41.965334,"SALES VOLUME":2704,"EMPLOYEE SIZE":13,"ZIPCODE":60640,"CITY":"CHICAGO"},{"LONGITUDE":-87.678518,"LATITUDE":41.964842,"SALES VOLUME":624,"EMPLOYEE SIZE":3,"ZIPCODE":60640,"CITY":"CHICAGO"},{"LONGITUDE":-87.673603,"LATITUDE":41.964191,"SALES VOLUME":624,"EMPLOYEE SIZE":3,"ZIPCODE":60640,"CITY":"CHICAGO"},{"LONGITUDE":-87.649492,"LATITUDE":41.966531,"SALES VOLUME":624,"EMPLOYEE SIZE":3,"ZIPCODE":60640,"CITY":"CHICAGO"},{"LONGITUDE":-87.675042,"LATITUDE":41.965334,"SALES VOLUME":624,"EMPLOYEE SIZE":3,"ZIPCODE":60640,"CITY":"CHICAGO"},{"LONGITUDE":-87.649492,"LATITUDE":41.966531,"SALES VOLUME":624,"EMPLOYEE SIZE":3,"ZIPCODE":60640,"CITY":"CHICAGO"},{"LONGITUDE":-87.649492,"LATITUDE":41.966531,"SALES VOLUME":624,"EMPLOYEE SIZE":3,"ZIPCODE":60640,"CITY":"CHICAGO"},{"LONGITUDE":-87.649492,"LATITUDE":41.966531,"SALES VOLUME":624,"EMPLOYEE SIZE":3,"ZIPCODE":60640,"CITY":"CHICAGO"},{"LONGITUDE":-87.649492,"LATITUDE":41.966531,"SALES VOLUME":624,"EMPLOYEE SIZE":3,"ZIPCODE":60640,"CITY":"CHICAGO"},{"LONGITUDE":-87.657196,"LATITUDE":41.973366,"SALES VOLUME":624,"EMPLOYEE SIZE":3,"ZIPCODE":60640,"CITY":"CHICAGO"},{"LONGITUDE":-87.649492,"LATITUDE":41.966531,"SALES VOLUME":624,"EMPLOYEE SIZE":3,"ZIPCODE":60640,"CITY":"CHICAGO"},{"LONGITUDE":-87.649492,"LATITUDE":41.966531,"SALES VOLUME":624,"EMPLOYEE SIZE":3,"ZIPCODE":60640,"CITY":"CHICAGO"},{"LONGITUDE":-87.649492,"LATITUDE":41.966531,"SALES VOLUME":624,"EMPLOYEE SIZE":3,"ZIPCODE":60640,"CITY":"CHICAGO"},{"LONGITUDE":-87.649492,"LATITUDE":41.966531,"SALES VOLUME":624,"EMPLOYEE SIZE":3,"ZIPCODE":60640,"CITY":"CHICAGO"},{"LONGITUDE":-87.649492,"LATITUDE":41.966531,"SALES VOLUME":624,"EMPLOYEE SIZE":3,"ZIPCODE":60640,"CITY":"CHICAGO"},{"LONGITUDE":-87.649492,"LATITUDE":41.966531,"SALES VOLUME":624,"EMPLOYEE SIZE":3,"ZIPCODE":60640,"CITY":"CHICAGO"},{"LONGITUDE":-87.649492,"LATITUDE":41.966531,"SALES VOLUME":624,"EMPLOYEE SIZE":3,"ZIPCODE":60640,"CITY":"CHICAGO"},{"LONGITUDE":-87.649492,"LATITUDE":41.966531,"SALES VOLUME":624,"EMPLOYEE SIZE":3,"ZIPCODE":60640,"CITY":"CHICAGO"},{"LONGITUDE":-87.649492,"LATITUDE":41.966531,"SALES VOLUME":624,"EMPLOYEE SIZE":3,"ZIPCODE":60640,"CITY":"CHICAGO"},{"LONGITUDE":-87.678518,"LATITUDE":41.964842,"SALES VOLUME":624,"EMPLOYEE SIZE":3,"ZIPCODE":60640,"CITY":"CHICAGO"},{"LONGITUDE":-87.668739,"LATITUDE":41.979431,"SALES VOLUME":null,"EMPLOYEE SIZE":null,"ZIPCODE":60640,"CITY":"CHICAGO"},{"LONGITUDE":-87.649492,"LATITUDE":41.966531,"SALES VOLUME":2080,"EMPLOYEE SIZE":9,"ZIPCODE":60640,"CITY":"CHICAGO"},{"LONGITUDE":-87.655188,"LATITUDE":41.976492,"SALES VOLUME":0,"EMPLOYEE SIZE":16,"ZIPCODE":60640,"CITY":"CHICAGO"},{"LONGITUDE":-87.678518,"LATITUDE":41.964842,"SALES VOLUME":624,"EMPLOYEE SIZE":3,"ZIPCODE":60640,"CITY":"CHICAGO"},{"LONGITUDE":-87.671136,"LATITUDE":41.972922,"SALES VOLUME":624,"EMPLOYEE SIZE":3,"ZIPCODE":60640,"CITY":"CHICAGO"},{"LONGITUDE":-87.649492,"LATITUDE":41.966531,"SALES VOLUME":0,"EMPLOYEE SIZE":6,"ZIPCODE":60640,"CITY":"CHICAGO"},{"LONGITUDE":-87.673603,"LATITUDE":41.964191,"SALES VOLUME":624,"EMPLOYEE SIZE":3,"ZIPCODE":60640,"CITY":"CHICAGO"},{"LONGITUDE":-87.668739,"LATITUDE":41.979431,"SALES VOLUME":208,"EMPLOYEE SIZE":5,"ZIPCODE":60640,"CITY":"CHICAGO"},{"LONGITUDE":-87.659853,"LATITUDE":41.974044,"SALES VOLUME":208,"EMPLOYEE SIZE":5,"ZIPCODE":60640,"CITY":"CHICAGO"},{"LONGITUDE":-87.655313,"LATITUDE":41.968946,"SALES VOLUME":0,"EMPLOYEE SIZE":3,"ZIPCODE":60640,"CITY":"CHICAGO"},{"LONGITUDE":-87.666922,"LATITUDE":41.965569,"SALES VOLUME":null,"EMPLOYEE SIZE":null,"ZIPCODE":60640,"CITY":"CHICAGO"},{"LONGITUDE":-87.649492,"LATITUDE":41.966531,"SALES VOLUME":0,"EMPLOYEE SIZE":3,"ZIPCODE":60640,"CITY":"CHICAGO"},{"LONGITUDE":-87.659192,"LATITUDE":41.968797,"SALES VOLUME":624,"EMPLOYEE SIZE":3,"ZIPCODE":60640,"CITY":"CHICAGO"},{"LONGITUDE":-87.649492,"LATITUDE":41.966531,"SALES VOLUME":null,"EMPLOYEE SIZE":null,"ZIPCODE":60640,"CITY":"CHICAGO"},{"LONGITUDE":-87.649492,"LATITUDE":41.966531,"SALES VOLUME":0,"EMPLOYEE SIZE":3,"ZIPCODE":60640,"CITY":"CHICAGO"},{"LONGITUDE":-87.649492,"LATITUDE":41.966531,"SALES VOLUME":null,"EMPLOYEE SIZE":null,"ZIPCODE":60640,"CITY":"CHICAGO"},{"LONGITUDE":-87.649492,"LATITUDE":41.966531,"SALES VOLUME":null,"EMPLOYEE SIZE":null,"ZIPCODE":60640,"CITY":"CHICAGO"},{"LONGITUDE":-87.678518,"LATITUDE":41.964842,"SALES VOLUME":624,"EMPLOYEE SIZE":3,"ZIPCODE":60640,"CITY":"CHICAGO"},{"LONGITUDE":-87.668739,"LATITUDE":41.979431,"SALES VOLUME":208,"EMPLOYEE SIZE":5,"ZIPCODE":60640,"CITY":"CHICAGO"},{"LONGITUDE":-87.649492,"LATITUDE":41.966531,"SALES VOLUME":null,"EMPLOYEE SIZE":null,"ZIPCODE":60640,"CITY":"CHICAGO"},{"LONGITUDE":-87.675042,"LATITUDE":41.965334,"SALES VOLUME":832,"EMPLOYEE SIZE":4,"ZIPCODE":60640,"CITY":"CHICAGO"},{"LONGITUDE":-87.675042,"LATITUDE":41.965334,"SALES VOLUME":624,"EMPLOYEE SIZE":3,"ZIPCODE":60640,"CITY":"CHICAGO"},{"LONGITUDE":-87.649492,"LATITUDE":41.966531,"SALES VOLUME":208,"EMPLOYEE SIZE":3,"ZIPCODE":60640,"CITY":"CHICAGO"},{"LONGITUDE":-87.649492,"LATITUDE":41.966531,"SALES VOLUME":null,"EMPLOYEE SIZE":null,"ZIPCODE":60640,"CITY":"CHICAGO"},{"LONGITUDE":-87.659853,"LATITUDE":41.974044,"SALES VOLUME":3535,"EMPLOYEE SIZE":17,"ZIPCODE":60640,"CITY":"CHICAGO"},{"LONGITUDE":-87.678518,"LATITUDE":41.964842,"SALES VOLUME":624,"EMPLOYEE SIZE":3,"ZIPCODE":60640,"CITY":"CHICAGO"},{"LONGITUDE":-87.652217,"LATITUDE":41.965222,"SALES VOLUME":624,"EMPLOYEE SIZE":3,"ZIPCODE":60640,"CITY":"CHICAGO"},{"LONGITUDE":-87.649492,"LATITUDE":41.966531,"SALES VOLUME":624,"EMPLOYEE SIZE":3,"ZIPCODE":60640,"CITY":"CHICAGO"},{"LONGITUDE":-87.649492,"LATITUDE":41.966531,"SALES VOLUME":624,"EMPLOYEE SIZE":3,"ZIPCODE":60640,"CITY":"CHICAGO"},{"LONGITUDE":-87.649492,"LATITUDE":41.966531,"SALES VOLUME":0,"EMPLOYEE SIZE":null,"ZIPCODE":60640,"CITY":"CHICAGO"},{"LONGITUDE":-87.649492,"LATITUDE":41.966531,"SALES VOLUME":0,"EMPLOYEE SIZE":null,"ZIPCODE":60640,"CITY":"CHICAGO"},{"LONGITUDE":-87.659853,"LATITUDE":41.974044,"SALES VOLUME":3119,"EMPLOYEE SIZE":15,"ZIPCODE":60640,"CITY":"CHICAGO"},{"LONGITUDE":-87.649492,"LATITUDE":41.966531,"SALES VOLUME":null,"EMPLOYEE SIZE":null,"ZIPCODE":60640,"CITY":"CHICAGO"},{"LONGITUDE":-87.649492,"LATITUDE":41.966531,"SALES VOLUME":0,"EMPLOYEE SIZE":null,"ZIPCODE":60640,"CITY":"CHICAGO"},{"LONGITUDE":-87.678518,"LATITUDE":41.964842,"SALES VOLUME":624,"EMPLOYEE SIZE":3,"ZIPCODE":60640,"CITY":"CHICAGO"},{"LONGITUDE":-87.655478,"LATITUDE":41.97866,"SALES VOLUME":624,"EMPLOYEE SIZE":3,"ZIPCODE":60640,"CITY":"CHICAGO"},{"LONGITUDE":-87.649492,"LATITUDE":41.966531,"SALES VOLUME":208,"EMPLOYEE SIZE":3,"ZIPCODE":60640,"CITY":"CHICAGO"},{"LONGITUDE":-87.654319,"LATITUDE":41.979352,"SALES VOLUME":624,"EMPLOYEE SIZE":3,"ZIPCODE":60640,"CITY":"CHICAGO"},{"LONGITUDE":-87.659192,"LATITUDE":41.968797,"SALES VOLUME":0,"EMPLOYEE SIZE":3,"ZIPCODE":60640,"CITY":"CHICAGO"},{"LONGITUDE":-87.649492,"LATITUDE":41.966531,"SALES VOLUME":624,"EMPLOYEE SIZE":3,"ZIPCODE":60640,"CITY":"CHICAGO"},{"LONGITUDE":-87.649492,"LATITUDE":41.966531,"SALES VOLUME":624,"EMPLOYEE SIZE":3,"ZIPCODE":60640,"CITY":"CHICAGO"},{"LONGITUDE":-87.659192,"LATITUDE":41.968797,"SALES VOLUME":208,"EMPLOYEE SIZE":3,"ZIPCODE":60640,"CITY":"CHICAGO"},{"LONGITUDE":-87.649492,"LATITUDE":41.966531,"SALES VOLUME":624,"EMPLOYEE SIZE":3,"ZIPCODE":60640,"CITY":"CHICAGO"},{"LONGITUDE":-87.675042,"LATITUDE":41.965334,"SALES VOLUME":624,"EMPLOYEE SIZE":3,"ZIPCODE":60640,"CITY":"CHICAGO"},{"LONGITUDE":-87.649492,"LATITUDE":41.966531,"SALES VOLUME":624,"EMPLOYEE SIZE":3,"ZIPCODE":60640,"CITY":"CHICAGO"},{"LONGITUDE":-87.671136,"LATITUDE":41.972922,"SALES VOLUME":624,"EMPLOYEE SIZE":3,"ZIPCODE":60640,"CITY":"CHICAGO"},{"LONGITUDE":-87.649492,"LATITUDE":41.966531,"SALES VOLUME":null,"EMPLOYEE SIZE":null,"ZIPCODE":60640,"CITY":"CHICAGO"},{"LONGITUDE":-87.649492,"LATITUDE":41.966531,"SALES VOLUME":208,"EMPLOYEE SIZE":3,"ZIPCODE":60640,"CITY":"CHICAGO"},{"LONGITUDE":-87.649492,"LATITUDE":41.966531,"SALES VOLUME":624,"EMPLOYEE SIZE":3,"ZIPCODE":60640,"CITY":"CHICAGO"},{"LONGITUDE":-87.649492,"LATITUDE":41.966531,"SALES VOLUME":null,"EMPLOYEE SIZE":null,"ZIPCODE":60640,"CITY":"CHICAGO"},{"LONGITUDE":-87.649492,"LATITUDE":41.966531,"SALES VOLUME":624,"EMPLOYEE SIZE":3,"ZIPCODE":60640,"CITY":"CHICAGO"},{"LONGITUDE":-87.649684,"LATITUDE":41.967744,"SALES VOLUME":624,"EMPLOYEE SIZE":3,"ZIPCODE":60640,"CITY":"CHICAGO"},{"LONGITUDE":-87.675042,"LATITUDE":41.965334,"SALES VOLUME":2288,"EMPLOYEE SIZE":11,"ZIPCODE":60640,"CITY":"CHICAGO"},{"LONGITUDE":-87.649492,"LATITUDE":41.966531,"SALES VOLUME":208,"EMPLOYEE SIZE":4,"ZIPCODE":60640,"CITY":"CHICAGO"},{"LONGITUDE":-87.667737,"LATITUDE":41.968309,"SALES VOLUME":208,"EMPLOYEE SIZE":3,"ZIPCODE":60640,"CITY":"CHICAGO"},{"LONGITUDE":-87.659192,"LATITUDE":41.968797,"SALES VOLUME":624,"EMPLOYEE SIZE":3,"ZIPCODE":60640,"CITY":"CHICAGO"},{"LONGITUDE":-87.649492,"LATITUDE":41.966531,"SALES VOLUME":624,"EMPLOYEE SIZE":3,"ZIPCODE":60640,"CITY":"CHICAGO"},{"LONGITUDE":-87.678518,"LATITUDE":41.964842,"SALES VOLUME":624,"EMPLOYEE SIZE":3,"ZIPCODE":60640,"CITY":"CHICAGO"},{"LONGITUDE":-87.654863,"LATITUDE":41.979018,"SALES VOLUME":624,"EMPLOYEE SIZE":3,"ZIPCODE":60640,"CITY":"CHICAGO"},{"LONGITUDE":-87.649492,"LATITUDE":41.966531,"SALES VOLUME":0,"EMPLOYEE SIZE":3,"ZIPCODE":60640,"CITY":"CHICAGO"},{"LONGITUDE":-87.670939,"LATITUDE":41.972729,"SALES VOLUME":624,"EMPLOYEE SIZE":3,"ZIPCODE":60640,"CITY":"CHICAGO"},{"LONGITUDE":-87.649492,"LATITUDE":41.966531,"SALES VOLUME":624,"EMPLOYEE SIZE":3,"ZIPCODE":60640,"CITY":"CHICAGO"},{"LONGITUDE":-87.668016,"LATITUDE":41.972035,"SALES VOLUME":null,"EMPLOYEE SIZE":null,"ZIPCODE":60640,"CITY":"CHICAGO"},{"LONGITUDE":-87.662,"LATITUDE":41.9715,"SALES VOLUME":0,"EMPLOYEE SIZE":6,"ZIPCODE":60640,"CITY":"CHICAGO"},{"LONGITUDE":-87.649492,"LATITUDE":41.966531,"SALES VOLUME":null,"EMPLOYEE SIZE":null,"ZIPCODE":60640,"CITY":"CHICAGO"},{"LONGITUDE":-87.671136,"LATITUDE":41.972922,"SALES VOLUME":0,"EMPLOYEE SIZE":5,"ZIPCODE":60640,"CITY":"CHICAGO"},{"LONGITUDE":-87.675042,"LATITUDE":41.965334,"SALES VOLUME":624,"EMPLOYEE SIZE":3,"ZIPCODE":60640,"CITY":"CHICAGO"},{"LONGITUDE":-87.659853,"LATITUDE":41.974044,"SALES VOLUME":208,"EMPLOYEE SIZE":3,"ZIPCODE":60640,"CITY":"CHICAGO"},{"LONGITUDE":-87.649492,"LATITUDE":41.966531,"SALES VOLUME":null,"EMPLOYEE SIZE":null,"ZIPCODE":60640,"CITY":"CHICAGO"},{"LONGITUDE":-87.678518,"LATITUDE":41.964842,"SALES VOLUME":null,"EMPLOYEE SIZE":null,"ZIPCODE":60640,"CITY":"CHICAGO"},{"LONGITUDE":-87.675042,"LATITUDE":41.965334,"SALES VOLUME":624,"EMPLOYEE SIZE":3,"ZIPCODE":60640,"CITY":"CHICAGO"},{"LONGITUDE":-87.660084,"LATITUDE":41.978176,"SALES VOLUME":null,"EMPLOYEE SIZE":null,"ZIPCODE":60640,"CITY":"CHICAGO"},{"LONGITUDE":-87.668016,"LATITUDE":41.972035,"SALES VOLUME":null,"EMPLOYEE SIZE":null,"ZIPCODE":60640,"CITY":"CHICAGO"},{"LONGITUDE":-87.656172,"LATITUDE":41.963053,"SALES VOLUME":null,"EMPLOYEE SIZE":null,"ZIPCODE":60640,"CITY":"CHICAGO"},{"LONGITUDE":-87.678518,"LATITUDE":41.964842,"SALES VOLUME":624,"EMPLOYEE SIZE":3,"ZIPCODE":60640,"CITY":"CHICAGO"},{"LONGITUDE":-87.649492,"LATITUDE":41.966531,"SALES VOLUME":null,"EMPLOYEE SIZE":null,"ZIPCODE":60640,"CITY":"CHICAGO"},{"LONGITUDE":-87.649492,"LATITUDE":41.966531,"SALES VOLUME":null,"EMPLOYEE SIZE":null,"ZIPCODE":60640,"CITY":"CHICAGO"},{"LONGITUDE":-87.649492,"LATITUDE":41.966531,"SALES VOLUME":null,"EMPLOYEE SIZE":null,"ZIPCODE":60640,"CITY":"CHICAGO"},{"LONGITUDE":-87.649492,"LATITUDE":41.966531,"SALES VOLUME":0,"EMPLOYEE SIZE":3,"ZIPCODE":60640,"CITY":"CHICAGO"},{"LONGITUDE":-87.678518,"LATITUDE":41.964842,"SALES VOLUME":624,"EMPLOYEE SIZE":3,"ZIPCODE":60640,"CITY":"CHICAGO"},{"LONGITUDE":-87.660084,"LATITUDE":41.978176,"SALES VOLUME":624,"EMPLOYEE SIZE":3,"ZIPCODE":60640,"CITY":"CHICAGO"},{"LONGITUDE":-87.675042,"LATITUDE":41.965334,"SALES VOLUME":624,"EMPLOYEE SIZE":3,"ZIPCODE":60640,"CITY":"CHICAGO"},{"LONGITUDE":-87.668016,"LATITUDE":41.972035,"SALES VOLUME":null,"EMPLOYEE SIZE":null,"ZIPCODE":60640,"CITY":"CHICAGO"},{"LONGITUDE":-87.660058,"LATITUDE":41.977188,"SALES VOLUME":null,"EMPLOYEE SIZE":null,"ZIPCODE":60640,"CITY":"CHICAGO"},{"LONGITUDE":-87.649492,"LATITUDE":41.966531,"SALES VOLUME":null,"EMPLOYEE SIZE":null,"ZIPCODE":60640,"CITY":"CHICAGO"},{"LONGITUDE":-87.660084,"LATITUDE":41.978176,"SALES VOLUME":624,"EMPLOYEE SIZE":3,"ZIPCODE":60640,"CITY":"CHICAGO"},{"LONGITUDE":-87.649492,"LATITUDE":41.966531,"SALES VOLUME":0,"EMPLOYEE SIZE":3,"ZIPCODE":60640,"CITY":"CHICAGO"},{"LONGITUDE":-87.649492,"LATITUDE":41.966531,"SALES VOLUME":624,"EMPLOYEE SIZE":3,"ZIPCODE":60640,"CITY":"CHICAGO"},{"LONGITUDE":-87.660058,"LATITUDE":41.977188,"SALES VOLUME":null,"EMPLOYEE SIZE":null,"ZIPCODE":60640,"CITY":"CHICAGO"},{"LONGITUDE":-87.649492,"LATITUDE":41.966531,"SALES VOLUME":2080,"EMPLOYEE SIZE":10,"ZIPCODE":60640,"CITY":"CHICAGO"},{"LONGITUDE":-87.649492,"LATITUDE":41.966531,"SALES VOLUME":null,"EMPLOYEE SIZE":null,"ZIPCODE":60640,"CITY":"CHICAGO"},{"LONGITUDE":-87.675042,"LATITUDE":41.965334,"SALES VOLUME":624,"EMPLOYEE SIZE":3,"ZIPCODE":60640,"CITY":"CHICAGO"},{"LONGITUDE":-87.660084,"LATITUDE":41.978176,"SALES VOLUME":624,"EMPLOYEE SIZE":3,"ZIPCODE":60640,"CITY":"CHICAGO"},{"LONGITUDE":-87.668016,"LATITUDE":41.972035,"SALES VOLUME":null,"EMPLOYEE SIZE":null,"ZIPCODE":60640,"CITY":"CHICAGO"},{"LONGITUDE":-87.65789,"LATITUDE":41.973358,"SALES VOLUME":624,"EMPLOYEE SIZE":3,"ZIPCODE":60640,"CITY":"CHICAGO"},{"LONGITUDE":-87.649684,"LATITUDE":41.967744,"SALES VOLUME":624,"EMPLOYEE SIZE":3,"ZIPCODE":60640,"CITY":"CHICAGO"},{"LONGITUDE":-87.675042,"LATITUDE":41.965334,"SALES VOLUME":624,"EMPLOYEE SIZE":3,"ZIPCODE":60640,"CITY":"CHICAGO"},{"LONGITUDE":-87.678518,"LATITUDE":41.964842,"SALES VOLUME":624,"EMPLOYEE SIZE":3,"ZIPCODE":60640,"CITY":"CHICAGO"},{"LONGITUDE":-87.678518,"LATITUDE":41.964842,"SALES VOLUME":624,"EMPLOYEE SIZE":3,"ZIPCODE":60640,"CITY":"CHICAGO"},{"LONGITUDE":-87.649492,"LATITUDE":41.966531,"SALES VOLUME":0,"EMPLOYEE SIZE":null,"ZIPCODE":60640,"CITY":"CHICAGO"},{"LONGITUDE":-87.649492,"LATITUDE":41.966531,"SALES VOLUME":null,"EMPLOYEE SIZE":null,"ZIPCODE":60640,"CITY":"CHICAGO"},{"LONGITUDE":-87.655313,"LATITUDE":41.968946,"SALES VOLUME":624,"EMPLOYEE SIZE":3,"ZIPCODE":60640,"CITY":"CHICAGO"},{"LONGITUDE":-87.660058,"LATITUDE":41.977188,"SALES VOLUME":null,"EMPLOYEE SIZE":null,"ZIPCODE":60640,"CITY":"CHICAGO"},{"LONGITUDE":-87.668774,"LATITUDE":41.976944,"SALES VOLUME":370,"EMPLOYEE SIZE":3,"ZIPCODE":60640,"CITY":"CHICAGO"},{"LONGITUDE":-87.649492,"LATITUDE":41.966531,"SALES VOLUME":null,"EMPLOYEE SIZE":null,"ZIPCODE":60640,"CITY":"CHICAGO"},{"LONGITUDE":-87.649492,"LATITUDE":41.966531,"SALES VOLUME":null,"EMPLOYEE SIZE":null,"ZIPCODE":60640,"CITY":"CHICAGO"},{"LONGITUDE":-87.649492,"LATITUDE":41.966531,"SALES VOLUME":null,"EMPLOYEE SIZE":null,"ZIPCODE":60640,"CITY":"CHICAGO"},{"LONGITUDE":-87.649492,"LATITUDE":41.966531,"SALES VOLUME":null,"EMPLOYEE SIZE":null,"ZIPCODE":60640,"CITY":"CHICAGO"},{"LONGITUDE":-87.649492,"LATITUDE":41.966531,"SALES VOLUME":null,"EMPLOYEE SIZE":null,"ZIPCODE":60640,"CITY":"CHICAGO"},{"LONGITUDE":-87.649492,"LATITUDE":41.966531,"SALES VOLUME":null,"EMPLOYEE SIZE":null,"ZIPCODE":60640,"CITY":"CHICAGO"},{"LONGITUDE":-87.678518,"LATITUDE":41.964842,"SALES VOLUME":624,"EMPLOYEE SIZE":3,"ZIPCODE":60640,"CITY":"CHICAGO"},{"LONGITUDE":-87.649492,"LATITUDE":41.966531,"SALES VOLUME":null,"EMPLOYEE SIZE":null,"ZIPCODE":60640,"CITY":"CHICAGO"},{"LONGITUDE":-87.675042,"LATITUDE":41.965334,"SALES VOLUME":624,"EMPLOYEE SIZE":3,"ZIPCODE":60640,"CITY":"CHICAGO"},{"LONGITUDE":-87.649492,"LATITUDE":41.966531,"SALES VOLUME":624,"EMPLOYEE SIZE":3,"ZIPCODE":60640,"CITY":"CHICAGO"},{"LONGITUDE":-87.678518,"LATITUDE":41.964842,"SALES VOLUME":624,"EMPLOYEE SIZE":3,"ZIPCODE":60640,"CITY":"CHICAGO"},{"LONGITUDE":-87.649492,"LATITUDE":41.966531,"SALES VOLUME":0,"EMPLOYEE SIZE":3,"ZIPCODE":60640,"CITY":"CHICAGO"},{"LONGITUDE":-87.678518,"LATITUDE":41.964842,"SALES VOLUME":624,"EMPLOYEE SIZE":3,"ZIPCODE":60640,"CITY":"CHICAGO"},{"LONGITUDE":-87.678518,"LATITUDE":41.964842,"SALES VOLUME":624,"EMPLOYEE SIZE":3,"ZIPCODE":60640,"CITY":"CHICAGO"},{"LONGITUDE":-87.649492,"LATITUDE":41.966531,"SALES VOLUME":624,"EMPLOYEE SIZE":3,"ZIPCODE":60640,"CITY":"CHICAGO"},{"LONGITUDE":-87.649492,"LATITUDE":41.966531,"SALES VOLUME":0,"EMPLOYEE SIZE":3,"ZIPCODE":60640,"CITY":"CHICAGO"},{"LONGITUDE":-87.649492,"LATITUDE":41.966531,"SALES VOLUME":624,"EMPLOYEE SIZE":3,"ZIPCODE":60640,"CITY":"CHICAGO"},{"LONGITUDE":-87.650402,"LATITUDE":41.970339,"SALES VOLUME":0,"EMPLOYEE SIZE":6,"ZIPCODE":60640,"CITY":"CHICAGO"},{"LONGITUDE":-87.668739,"LATITUDE":41.979431,"SALES VOLUME":0,"EMPLOYEE SIZE":3,"ZIPCODE":60640,"CITY":"CHICAGO"},{"LONGITUDE":-87.660084,"LATITUDE":41.978176,"SALES VOLUME":624,"EMPLOYEE SIZE":3,"ZIPCODE":60640,"CITY":"CHICAGO"},{"LONGITUDE":-87.668739,"LATITUDE":41.979431,"SALES VOLUME":null,"EMPLOYEE SIZE":null,"ZIPCODE":60640,"CITY":"CHICAGO"},{"LONGITUDE":-87.648992,"LATITUDE":41.966263,"SALES VOLUME":624,"EMPLOYEE SIZE":3,"ZIPCODE":60640,"CITY":"CHICAGO"},{"LONGITUDE":-87.675042,"LATITUDE":41.965334,"SALES VOLUME":624,"EMPLOYEE SIZE":3,"ZIPCODE":60640,"CITY":"CHICAGO"},{"LONGITUDE":-87.677158,"LATITUDE":41.964056,"SALES VOLUME":208,"EMPLOYEE SIZE":3,"ZIPCODE":60640,"CITY":"CHICAGO"},{"LONGITUDE":-87.649492,"LATITUDE":41.966531,"SALES VOLUME":624,"EMPLOYEE SIZE":3,"ZIPCODE":60640,"CITY":"CHICAGO"},{"LONGITUDE":-87.649492,"LATITUDE":41.966531,"SALES VOLUME":624,"EMPLOYEE SIZE":3,"ZIPCODE":60640,"CITY":"CHICAGO"},{"LONGITUDE":-87.655313,"LATITUDE":41.968946,"SALES VOLUME":0,"EMPLOYEE SIZE":3,"ZIPCODE":60640,"CITY":"CHICAGO"},{"LONGITUDE":-87.652217,"LATITUDE":41.965222,"SALES VOLUME":null,"EMPLOYEE SIZE":null,"ZIPCODE":60640,"CITY":"CHICAGO"},{"LONGITUDE":-87.659853,"LATITUDE":41.974044,"SALES VOLUME":null,"EMPLOYEE SIZE":null,"ZIPCODE":60640,"CITY":"CHICAGO"},{"LONGITUDE":-87.654457,"LATITUDE":41.980315,"SALES VOLUME":208,"EMPLOYEE SIZE":3,"ZIPCODE":60640,"CITY":"CHICAGO"},{"LONGITUDE":-87.678518,"LATITUDE":41.964842,"SALES VOLUME":0,"EMPLOYEE SIZE":5,"ZIPCODE":60640,"CITY":"CHICAGO"},{"LONGITUDE":-87.678518,"LATITUDE":41.964842,"SALES VOLUME":624,"EMPLOYEE SIZE":3,"ZIPCODE":60640,"CITY":"CHICAGO"},{"LONGITUDE":-87.678518,"LATITUDE":41.964842,"SALES VOLUME":624,"EMPLOYEE SIZE":3,"ZIPCODE":60640,"CITY":"CHICAGO"},{"LONGITUDE":-87.649492,"LATITUDE":41.966531,"SALES VOLUME":0,"EMPLOYEE SIZE":3,"ZIPCODE":60640,"CITY":"CHICAGO"},{"LONGITUDE":-87.649492,"LATITUDE":41.966531,"SALES VOLUME":208,"EMPLOYEE SIZE":3,"ZIPCODE":60640,"CITY":"CHICAGO"},{"LONGITUDE":-87.649492,"LATITUDE":41.966531,"SALES VOLUME":208,"EMPLOYEE SIZE":3,"ZIPCODE":60640,"CITY":"CHICAGO"},{"LONGITUDE":-87.668739,"LATITUDE":41.979431,"SALES VOLUME":1040,"EMPLOYEE SIZE":5,"ZIPCODE":60640,"CITY":"CHICAGO"},{"LONGITUDE":-87.649492,"LATITUDE":41.966531,"SALES VOLUME":null,"EMPLOYEE SIZE":null,"ZIPCODE":60640,"CITY":"CHICAGO"},{"LONGITUDE":-87.649492,"LATITUDE":41.966531,"SALES VOLUME":null,"EMPLOYEE SIZE":null,"ZIPCODE":60640,"CITY":"CHICAGO"},{"LONGITUDE":-87.659853,"LATITUDE":41.974044,"SALES VOLUME":3119,"EMPLOYEE SIZE":8,"ZIPCODE":60640,"CITY":"CHICAGO"},{"LONGITUDE":-87.649492,"LATITUDE":41.966531,"SALES VOLUME":624,"EMPLOYEE SIZE":3,"ZIPCODE":60640,"CITY":"CHICAGO"},{"LONGITUDE":-87.649492,"LATITUDE":41.966531,"SALES VOLUME":624,"EMPLOYEE SIZE":3,"ZIPCODE":60640,"CITY":"CHICAGO"},{"LONGITUDE":-87.649492,"LATITUDE":41.966531,"SALES VOLUME":624,"EMPLOYEE SIZE":3,"ZIPCODE":60640,"CITY":"CHICAGO"},{"LONGITUDE":-87.668484,"LATITUDE":41.980149,"SALES VOLUME":null,"EMPLOYEE SIZE":null,"ZIPCODE":60640,"CITY":"CHICAGO"},{"LONGITUDE":-87.649492,"LATITUDE":41.966531,"SALES VOLUME":624,"EMPLOYEE SIZE":3,"ZIPCODE":60640,"CITY":"CHICAGO"},{"LONGITUDE":-87.668739,"LATITUDE":41.979431,"SALES VOLUME":null,"EMPLOYEE SIZE":null,"ZIPCODE":60640,"CITY":"CHICAGO"},{"LONGITUDE":-87.659853,"LATITUDE":41.974044,"SALES VOLUME":null,"EMPLOYEE SIZE":null,"ZIPCODE":60640,"CITY":"CHICAGO"},{"LONGITUDE":-87.668084,"LATITUDE":41.969869,"SALES VOLUME":370,"EMPLOYEE SIZE":3,"ZIPCODE":60640,"CITY":"CHICAGO"},{"LONGITUDE":-87.675042,"LATITUDE":41.965334,"SALES VOLUME":624,"EMPLOYEE SIZE":3,"ZIPCODE":60640,"CITY":"CHICAGO"},{"LONGITUDE":-87.678518,"LATITUDE":41.964842,"SALES VOLUME":624,"EMPLOYEE SIZE":3,"ZIPCODE":60640,"CITY":"CHICAGO"},{"LONGITUDE":-87.678518,"LATITUDE":41.964842,"SALES VOLUME":624,"EMPLOYEE SIZE":3,"ZIPCODE":60640,"CITY":"CHICAGO"},{"LONGITUDE":-87.649492,"LATITUDE":41.966531,"SALES VOLUME":null,"EMPLOYEE SIZE":null,"ZIPCODE":60640,"CITY":"CHICAGO"},{"LONGITUDE":-87.649492,"LATITUDE":41.966531,"SALES VOLUME":0,"EMPLOYEE SIZE":3,"ZIPCODE":60640,"CITY":"CHICAGO"},{"LONGITUDE":-87.649492,"LATITUDE":41.966531,"SALES VOLUME":null,"EMPLOYEE SIZE":null,"ZIPCODE":60640,"CITY":"CHICAGO"},{"LONGITUDE":-87.673603,"LATITUDE":41.964191,"SALES VOLUME":624,"EMPLOYEE SIZE":3,"ZIPCODE":60640,"CITY":"CHICAGO"},{"LONGITUDE":-87.678518,"LATITUDE":41.964842,"SALES VOLUME":null,"EMPLOYEE SIZE":null,"ZIPCODE":60640,"CITY":"CHICAGO"},{"LONGITUDE":-87.649492,"LATITUDE":41.966531,"SALES VOLUME":624,"EMPLOYEE SIZE":3,"ZIPCODE":60640,"CITY":"CHICAGO"},{"LONGITUDE":-87.649492,"LATITUDE":41.966531,"SALES VOLUME":624,"EMPLOYEE SIZE":3,"ZIPCODE":60640,"CITY":"CHICAGO"},{"LONGITUDE":-87.670939,"LATITUDE":41.972729,"SALES VOLUME":624,"EMPLOYEE SIZE":3,"ZIPCODE":60640,"CITY":"CHICAGO"},{"LONGITUDE":-87.660084,"LATITUDE":41.978176,"SALES VOLUME":624,"EMPLOYEE SIZE":3,"ZIPCODE":60640,"CITY":"CHICAGO"},{"LONGITUDE":-87.660058,"LATITUDE":41.977188,"SALES VOLUME":null,"EMPLOYEE SIZE":null,"ZIPCODE":60640,"CITY":"CHICAGO"},{"LONGITUDE":-87.675042,"LATITUDE":41.965334,"SALES VOLUME":624,"EMPLOYEE SIZE":3,"ZIPCODE":60640,"CITY":"CHICAGO"},{"LONGITUDE":-87.650402,"LATITUDE":41.970339,"SALES VOLUME":0,"EMPLOYEE SIZE":6,"ZIPCODE":60640,"CITY":"CHICAGO"},{"LONGITUDE":-87.649492,"LATITUDE":41.966531,"SALES VOLUME":624,"EMPLOYEE SIZE":3,"ZIPCODE":60640,"CITY":"CHICAGO"},{"LONGITUDE":-87.649492,"LATITUDE":41.966531,"SALES VOLUME":null,"EMPLOYEE SIZE":null,"ZIPCODE":60640,"CITY":"CHICAGO"},{"LONGITUDE":-87.675042,"LATITUDE":41.965334,"SALES VOLUME":null,"EMPLOYEE SIZE":null,"ZIPCODE":60640,"CITY":"CHICAGO"},{"LONGITUDE":-87.662,"LATITUDE":41.9715,"SALES VOLUME":null,"EMPLOYEE SIZE":null,"ZIPCODE":60640,"CITY":"CHICAGO"},{"LONGITUDE":-87.673603,"LATITUDE":41.964191,"SALES VOLUME":624,"EMPLOYEE SIZE":3,"ZIPCODE":60640,"CITY":"CHICAGO"},{"LONGITUDE":-87.649492,"LATITUDE":41.966531,"SALES VOLUME":624,"EMPLOYEE SIZE":3,"ZIPCODE":60640,"CITY":"CHICAGO"},{"LONGITUDE":-87.649492,"LATITUDE":41.966531,"SALES VOLUME":null,"EMPLOYEE SIZE":null,"ZIPCODE":60640,"CITY":"CHICAGO"},{"LONGITUDE":-87.675042,"LATITUDE":41.965334,"SALES VOLUME":624,"EMPLOYEE SIZE":3,"ZIPCODE":60640,"CITY":"CHICAGO"},{"LONGITUDE":-87.649492,"LATITUDE":41.966531,"SALES VOLUME":null,"EMPLOYEE SIZE":null,"ZIPCODE":60640,"CITY":"CHICAGO"},{"LONGITUDE":-87.649492,"LATITUDE":41.966531,"SALES VOLUME":null,"EMPLOYEE SIZE":null,"ZIPCODE":60640,"CITY":"CHICAGO"},{"LONGITUDE":-87.652079,"LATITUDE":41.969403,"SALES VOLUME":747,"EMPLOYEE SIZE":7,"ZIPCODE":60640,"CITY":"CHICAGO"},{"LONGITUDE":-87.652217,"LATITUDE":41.965222,"SALES VOLUME":624,"EMPLOYEE SIZE":3,"ZIPCODE":60640,"CITY":"CHICAGO"},{"LONGITUDE":-87.649492,"LATITUDE":41.966531,"SALES VOLUME":624,"EMPLOYEE SIZE":3,"ZIPCODE":60640,"CITY":"CHICAGO"},{"LONGITUDE":-87.649492,"LATITUDE":41.966531,"SALES VOLUME":624,"EMPLOYEE SIZE":3,"ZIPCODE":60640,"CITY":"CHICAGO"},{"LONGITUDE":-87.675042,"LATITUDE":41.965334,"SALES VOLUME":624,"EMPLOYEE SIZE":3,"ZIPCODE":60640,"CITY":"CHICAGO"},{"LONGITUDE":-87.675042,"LATITUDE":41.965334,"SALES VOLUME":624,"EMPLOYEE SIZE":3,"ZIPCODE":60640,"CITY":"CHICAGO"},{"LONGITUDE":-87.649684,"LATITUDE":41.967744,"SALES VOLUME":416,"EMPLOYEE SIZE":2,"ZIPCODE":60640,"CITY":"CHICAGO"},{"LONGITUDE":-87.649492,"LATITUDE":41.966531,"SALES VOLUME":null,"EMPLOYEE SIZE":null,"ZIPCODE":60640,"CITY":"CHICAGO"},{"LONGITUDE":-87.659853,"LATITUDE":41.974044,"SALES VOLUME":208,"EMPLOYEE SIZE":5,"ZIPCODE":60640,"CITY":"CHICAGO"},{"LONGITUDE":-87.649492,"LATITUDE":41.966531,"SALES VOLUME":null,"EMPLOYEE SIZE":null,"ZIPCODE":60640,"CITY":"CHICAGO"},{"LONGITUDE":-87.667987,"LATITUDE":41.978501,"SALES VOLUME":624,"EMPLOYEE SIZE":3,"ZIPCODE":60640,"CITY":"CHICAGO"},{"LONGITUDE":-87.668739,"LATITUDE":41.979431,"SALES VOLUME":1040,"EMPLOYEE SIZE":5,"ZIPCODE":60640,"CITY":"CHICAGO"},{"LONGITUDE":-87.668739,"LATITUDE":41.979431,"SALES VOLUME":0,"EMPLOYEE SIZE":3,"ZIPCODE":60640,"CITY":"CHICAGO"},{"LONGITUDE":-87.649684,"LATITUDE":41.967744,"SALES VOLUME":4991,"EMPLOYEE SIZE":24,"ZIPCODE":60640,"CITY":"CHICAGO"},{"LONGITUDE":-87.665092,"LATITUDE":41.802402,"SALES VOLUME":624,"EMPLOYEE SIZE":3,"ZIPCODE":60640,"CITY":"CHICAGO"},{"LONGITUDE":-87.649492,"LATITUDE":41.966531,"SALES VOLUME":624,"EMPLOYEE SIZE":3,"ZIPCODE":60640,"CITY":"CHICAGO"},{"LONGITUDE":-87.648992,"LATITUDE":41.966263,"SALES VOLUME":4159,"EMPLOYEE SIZE":20,"ZIPCODE":60640,"CITY":"CHICAGO"},{"LONGITUDE":-87.652217,"LATITUDE":41.965222,"SALES VOLUME":624,"EMPLOYEE SIZE":3,"ZIPCODE":60640,"CITY":"CHICAGO"},{"LONGITUDE":-87.649492,"LATITUDE":41.966531,"SALES VOLUME":624,"EMPLOYEE SIZE":3,"ZIPCODE":60640,"CITY":"CHICAGO"},{"LONGITUDE":-87.649492,"LATITUDE":41.966531,"SALES VOLUME":null,"EMPLOYEE SIZE":null,"ZIPCODE":60640,"CITY":"CHICAGO"},{"LONGITUDE":-87.649492,"LATITUDE":41.966531,"SALES VOLUME":624,"EMPLOYEE SIZE":3,"ZIPCODE":60640,"CITY":"CHICAGO"},{"LONGITUDE":-87.655844,"LATITUDE":41.968857,"SALES VOLUME":624,"EMPLOYEE SIZE":3,"ZIPCODE":60640,"CITY":"CHICAGO"},{"LONGITUDE":-87.675042,"LATITUDE":41.965334,"SALES VOLUME":208,"EMPLOYEE SIZE":3,"ZIPCODE":60640,"CITY":"CHICAGO"},{"LONGITUDE":-87.655767,"LATITUDE":41.963408,"SALES VOLUME":624,"EMPLOYEE SIZE":3,"ZIPCODE":60640,"CITY":"CHICAGO"},{"LONGITUDE":-87.671136,"LATITUDE":41.972922,"SALES VOLUME":624,"EMPLOYEE SIZE":3,"ZIPCODE":60640,"CITY":"CHICAGO"},{"LONGITUDE":-87.671136,"LATITUDE":41.972922,"SALES VOLUME":624,"EMPLOYEE SIZE":3,"ZIPCODE":60640,"CITY":"CHICAGO"},{"LONGITUDE":-87.649492,"LATITUDE":41.966531,"SALES VOLUME":624,"EMPLOYEE SIZE":3,"ZIPCODE":60640,"CITY":"CHICAGO"},{"LONGITUDE":-87.649492,"LATITUDE":41.966531,"SALES VOLUME":624,"EMPLOYEE SIZE":3,"ZIPCODE":60640,"CITY":"CHICAGO"},{"LONGITUDE":-87.655313,"LATITUDE":41.968946,"SALES VOLUME":624,"EMPLOYEE SIZE":3,"ZIPCODE":60640,"CITY":"CHICAGO"},{"LONGITUDE":-87.671136,"LATITUDE":41.972922,"SALES VOLUME":624,"EMPLOYEE SIZE":3,"ZIPCODE":60640,"CITY":"CHICAGO"},{"LONGITUDE":-87.655478,"LATITUDE":41.97866,"SALES VOLUME":416,"EMPLOYEE SIZE":2,"ZIPCODE":60640,"CITY":"CHICAGO"},{"LONGITUDE":-87.654863,"LATITUDE":41.979018,"SALES VOLUME":624,"EMPLOYEE SIZE":3,"ZIPCODE":60640,"CITY":"CHICAGO"},{"LONGITUDE":-87.649492,"LATITUDE":41.966531,"SALES VOLUME":624,"EMPLOYEE SIZE":3,"ZIPCODE":60640,"CITY":"CHICAGO"},{"LONGITUDE":-87.66696,"LATITUDE":41.967949,"SALES VOLUME":624,"EMPLOYEE SIZE":3,"ZIPCODE":60640,"CITY":"CHICAGO"},{"LONGITUDE":-87.659558,"LATITUDE":41.981415,"SALES VOLUME":832,"EMPLOYEE SIZE":4,"ZIPCODE":60640,"CITY":"CHICAGO"},{"LONGITUDE":-87.649492,"LATITUDE":41.966531,"SALES VOLUME":624,"EMPLOYEE SIZE":3,"ZIPCODE":60640,"CITY":"CHICAGO"},{"LONGITUDE":-87.649684,"LATITUDE":41.967744,"SALES VOLUME":624,"EMPLOYEE SIZE":3,"ZIPCODE":60640,"CITY":"CHICAGO"},{"LONGITUDE":-87.649492,"LATITUDE":41.966531,"SALES VOLUME":624,"EMPLOYEE SIZE":3,"ZIPCODE":60640,"CITY":"CHICAGO"},{"LONGITUDE":-87.670939,"LATITUDE":41.972729,"SALES VOLUME":624,"EMPLOYEE SIZE":3,"ZIPCODE":60640,"CITY":"CHICAGO"},{"LONGITUDE":-87.649492,"LATITUDE":41.966531,"SALES VOLUME":624,"EMPLOYEE SIZE":3,"ZIPCODE":60640,"CITY":"CHICAGO"},{"LONGITUDE":-87.675042,"LATITUDE":41.965334,"SALES VOLUME":624,"EMPLOYEE SIZE":3,"ZIPCODE":60640,"CITY":"CHICAGO"},{"LONGITUDE":-87.675042,"LATITUDE":41.965334,"SALES VOLUME":624,"EMPLOYEE SIZE":3,"ZIPCODE":60640,"CITY":"CHICAGO"},{"LONGITUDE":-87.655313,"LATITUDE":41.968946,"SALES VOLUME":624,"EMPLOYEE SIZE":3,"ZIPCODE":60640,"CITY":"CHICAGO"},{"LONGITUDE":-87.649492,"LATITUDE":41.966531,"SALES VOLUME":208,"EMPLOYEE SIZE":3,"ZIPCODE":60640,"CITY":"CHICAGO"},{"LONGITUDE":-87.659853,"LATITUDE":41.974044,"SALES VOLUME":208,"EMPLOYEE SIZE":3,"ZIPCODE":60640,"CITY":"CHICAGO"},{"LONGITUDE":-87.649492,"LATITUDE":41.966531,"SALES VOLUME":null,"EMPLOYEE SIZE":null,"ZIPCODE":60640,"CITY":"CHICAGO"},{"LONGITUDE":-87.655313,"LATITUDE":41.968946,"SALES VOLUME":624,"EMPLOYEE SIZE":3,"ZIPCODE":60640,"CITY":"CHICAGO"},{"LONGITUDE":-87.657317,"LATITUDE":41.964611,"SALES VOLUME":624,"EMPLOYEE SIZE":3,"ZIPCODE":60640,"CITY":"CHICAGO"},{"LONGITUDE":-87.678518,"LATITUDE":41.964842,"SALES VOLUME":624,"EMPLOYEE SIZE":3,"ZIPCODE":60640,"CITY":"CHICAGO"},{"LONGITUDE":-87.66656,"LATITUDE":41.962328,"SALES VOLUME":624,"EMPLOYEE SIZE":3,"ZIPCODE":60640,"CITY":"CHICAGO"},{"LONGITUDE":-87.649492,"LATITUDE":41.966531,"SALES VOLUME":624,"EMPLOYEE SIZE":3,"ZIPCODE":60640,"CITY":"CHICAGO"},{"LONGITUDE":-87.666922,"LATITUDE":41.965569,"SALES VOLUME":null,"EMPLOYEE SIZE":null,"ZIPCODE":60640,"CITY":"CHICAGO"},{"LONGITUDE":-87.649492,"LATITUDE":41.966531,"SALES VOLUME":0,"EMPLOYEE SIZE":null,"ZIPCODE":60640,"CITY":"CHICAGO"},{"LONGITUDE":-87.671136,"LATITUDE":41.972922,"SALES VOLUME":624,"EMPLOYEE SIZE":3,"ZIPCODE":60640,"CITY":"CHICAGO"},{"LONGITUDE":-87.649492,"LATITUDE":41.966531,"SALES VOLUME":624,"EMPLOYEE SIZE":3,"ZIPCODE":60640,"CITY":"CHICAGO"},{"LONGITUDE":-87.649492,"LATITUDE":41.966531,"SALES VOLUME":624,"EMPLOYEE SIZE":3,"ZIPCODE":60640,"CITY":"CHICAGO"},{"LONGITUDE":-87.649492,"LATITUDE":41.966531,"SALES VOLUME":624,"EMPLOYEE SIZE":3,"ZIPCODE":60640,"CITY":"CHICAGO"},{"LONGITUDE":-87.678518,"LATITUDE":41.964842,"SALES VOLUME":2080,"EMPLOYEE SIZE":10,"ZIPCODE":60640,"CITY":"CHICAGO"},{"LONGITUDE":-87.675042,"LATITUDE":41.965334,"SALES VOLUME":624,"EMPLOYEE SIZE":3,"ZIPCODE":60640,"CITY":"CHICAGO"},{"LONGITUDE":-87.654918,"LATITUDE":41.979128,"SALES VOLUME":624,"EMPLOYEE SIZE":3,"ZIPCODE":60640,"CITY":"CHICAGO"},{"LONGITUDE":-87.6736,"LATITUDE":41.963741,"SALES VOLUME":624,"EMPLOYEE SIZE":3,"ZIPCODE":60640,"CITY":"CHICAGO"},{"LONGITUDE":-87.652665,"LATITUDE":41.971376,"SALES VOLUME":624,"EMPLOYEE SIZE":3,"ZIPCODE":60640,"CITY":"CHICAGO"}]